{"type": "FeatureCollection", "features": [ {"type": "Feature", "properties": {"norad_id": 39543, "name": "FENGYUN 1C DEB", "group": "fengyun-1c-debris", "lat": 44.64468701564313, "lon": -161.0718094848848, "alt_km": 769.0607441453285, "timestamp": "2025-12-05T14:45:15.589222+00:00", "meta": {"OBJECT_NAME": "FENGYUN 1C DEB", "OBJECT_ID": "1999-025EWL", "EPOCH": "2025-12-02T19:29:54.358944", "MEAN_MOTION": 13.70153649, "ECCENTRICITY": 0.03392643, "INCLINATION": 99.0434, "RA_OF_ASC_NODE": 7.2386, "ARG_OF_PERICENTER": 168.2172, "MEAN_ANOMALY": 192.7172, "EPHEMERIS_TYPE": 0, "CLASSIFICATION_TYPE": "U", "NORAD_CAT_ID": 39543, "ELEMENT_SET_NO": 999, "REV_AT_EPOCH": 49049, "BSTAR": 0.0011250727, "MEAN_MOTION_DOT": 1.448e-05, "MEAN_MOTION_DDOT": 0}, "tle": {"line1": "1 39543U 99025EWL 25336.81243471  .00001448  00000+0  11251-2 0  9996", "line2": "2 39543  99.0434   7.2386 0339264 168.2172 192.7172 13.70153649490499"}}, "geometry": {"type": "Point", "coordinates": [-161.0718094848848, 44.64468701564313]}}, {"type": "Feature", "properties": {"norad_id": 39544, "name": "FENGYUN 1C DEB", "group": "fengyun-1c-debris", "lat": 2.3016308927260214, "lon": -141.35141415190446, "alt_km": 841.4324109776262, "timestamp": "2025-12-05T14:45:15.589232+00:00", "meta": {"OBJECT_NAME": "FENGYUN 1C DEB", "OBJECT_ID": "1999-025EWM", "EPOCH": "2025-11-19T09:11:56.449536", "MEAN_MOTION": 14.05475202, "ECCENTRICITY": 0.00550402, "INCLINATION": 98.7431, "RA_OF_ASC_NODE": 203.3482, "ARG_OF_PERICENTER": 73.9921, "MEAN_ANOMALY": 286.7301, "EPHEMERIS_TYPE": 0, "CLASSIFICATION_TYPE": "U", "NORAD_CAT_ID": 39544, "ELEMENT_SET_NO": 999, "REV_AT_EPOCH": 56527, "BSTAR": 0.00067356683, "MEAN_MOTION_DOT": 1.067e-05, "MEAN_MOTION_DDOT": 0}, "tle": {"line1": "1 39544U 99025EWM 25323.38329224  .00001067  00000+0  67357-3 0  9992", "line2": "2 39544  98.7431 203.3482 0055040  73.9921 286.7301 14.05475202565278"}}, "geometry": {"type": "Point", "coordinates": [-141.35141415190446, 2.3016308927260214]}}, {"type": "Feature", "properties": {"norad_id": 40688, "name": "FENGYUN 1C DEB", "group": "fengyun-1c-debris", "lat": 24.93121917410836, "lon": -46.30175119596397, "alt_km": 973.350518670155, "timestamp": "2025-12-05T14:45:15.589243+00:00", "meta": {"OBJECT_NAME": "FENGYUN 1C DEB", "OBJECT_ID": "1999-025EWU", "EPOCH": "2025-11-28T15:26:17.467872", "MEAN_MOTION": 13.83811366, "ECCENTRICITY": 0.01426841, "INCLINATION": 98.9673, "RA_OF_ASC_NODE": 122.8373, "ARG_OF_PERICENTER": 69.4473, "MEAN_ANOMALY": 292.1926, "EPHEMERIS_TYPE": 0, "CLASSIFICATION_TYPE": "U", "NORAD_CAT_ID": 40688, "ELEMENT_SET_NO": 999, "REV_AT_EPOCH": 29722, "BSTAR": 0.00038169517, "MEAN_MOTION_DOT": 4.17e-06, "MEAN_MOTION_DDOT": 0}, "tle": {"line1": "1 40688U 99025EWU 25332.64325773  .00000417  00000+0  38170-3 0  9996", "line2": "2 40688  98.9673 122.8373 0142684  69.4473 292.1926 13.83811366297227"}}, "geometry": {"type": "Point", "coordinates": [-46.30175119596397, 24.93121917410836]}}, {"type": "Feature", "properties": {"norad_id": 40689, "name": "FENGYUN 1C DEB", "group": "fengyun-1c-debris", "lat": 10.414113572568088, "lon": -103.69703456174716, "alt_km": 1089.2430373870884, "timestamp": "2025-12-05T14:45:15.589254+00:00", "meta": {"OBJECT_NAME": "FENGYUN 1C DEB", "OBJECT_ID": "1999-025EWV", "EPOCH": "2025-12-03T01:06:50.802912", "MEAN_MOTION": 13.64656571, "ECCENTRICITY": 0.03097255, "INCLINATION": 99.1251, "RA_OF_ASC_NODE": 255.5784, "ARG_OF_PERICENTER": 126.5569, "MEAN_ANOMALY": 236.4512, "EPHEMERIS_TYPE": 0, "CLASSIFICATION_TYPE": "U", "NORAD_CAT_ID": 40689, "ELEMENT_SET_NO": 999, "REV_AT_EPOCH": 54751, "BSTAR": 0.0014793346, "MEAN_MOTION_DOT": 1.611e-05, "MEAN_MOTION_DDOT": 0}, "tle": {"line1": "1 40689U 99025EWV 25337.04642133  .00001611  00000+0  14793-2 0  9999", "line2": "2 40689  99.1251 255.5784 0309725 126.5569 236.4512 13.64656571547511"}}, "geometry": {"type": "Point", "coordinates": [-103.69703456174716, 10.414113572568088]}}, {"type": "Feature", "properties": {"norad_id": 40691, "name": "FENGYUN 1C DEB", "group": "fengyun-1c-debris", "lat": -15.800994466145868, "lon": -170.52156419702638, "alt_km": 998.7379742440871, "timestamp": "2025-12-05T14:45:15.589264+00:00", "meta": {"OBJECT_NAME": "FENGYUN 1C DEB", "OBJECT_ID": "1999-025EWX", "EPOCH": "2025-12-03T08:15:02.306016", "MEAN_MOTION": 13.89944729, "ECCENTRICITY": 0.0128434, "INCLINATION": 99.0573, "RA_OF_ASC_NODE": 9.8547, "ARG_OF_PERICENTER": 336.6089, "MEAN_ANOMALY": 22.9259, "EPHEMERIS_TYPE": 0, "CLASSIFICATION_TYPE": "U", "NORAD_CAT_ID": 40691, "ELEMENT_SET_NO": 999, "REV_AT_EPOCH": 55305, "BSTAR": 0.00023937, "MEAN_MOTION_DOT": 2.71e-06, "MEAN_MOTION_DDOT": 0}, "tle": {"line1": "1 40691U 99025EWX 25337.34377669  .00000271  00000+0  23937-3 0  9996", "line2": "2 40691  99.0573   9.8547 0128434 336.6089  22.9259 13.89944729553058"}}, "geometry": {"type": "Point", "coordinates": [-170.52156419702638, -15.800994466145868]}}, {"type": "Feature", "properties": {"norad_id": 40695, "name": "FENGYUN 1C DEB", "group": "fengyun-1c-debris", "lat": 37.48303212509329, "lon": -75.72203690759619, "alt_km": 887.1689012022089, "timestamp": "2025-12-05T14:45:15.589275+00:00", "meta": {"OBJECT_NAME": "FENGYUN 1C DEB", "OBJECT_ID": "1999-025EXB", "EPOCH": "2025-11-30T01:42:31.870080", "MEAN_MOTION": 14.50916136, "ECCENTRICITY": 0.02815501, "INCLINATION": 99.4248, "RA_OF_ASC_NODE": 90.7471, "ARG_OF_PERICENTER": 10.5794, "MEAN_ANOMALY": 350.1155, "EPHEMERIS_TYPE": 0, "CLASSIFICATION_TYPE": "U", "NORAD_CAT_ID": 40695, "ELEMENT_SET_NO": 999, "REV_AT_EPOCH": 31682, "BSTAR": 0.00020572034, "MEAN_MOTION_DOT": 1.283e-05, "MEAN_MOTION_DDOT": 0}, "tle": {"line1": "1 40695U 99025EXB 25334.07120220  .00001283  00000+0  20572-3 0  9992", "line2": "2 40695  99.4248  90.7471 0281550  10.5794 350.1155 14.50916136316823"}}, "geometry": {"type": "Point", "coordinates": [-75.72203690759619, 37.48303212509329]}}, {"type": "Feature", "properties": {"norad_id": 40696, "name": "FENGYUN 1C DEB", "group": "fengyun-1c-debris", "lat": -29.17232393481779, "lon": -28.391476909805416, "alt_km": 870.223799663926, "timestamp": "2025-12-05T14:45:15.589285+00:00", "meta": {"OBJECT_NAME": "FENGYUN 1C DEB", "OBJECT_ID": "1999-025EXC", "EPOCH": "2025-11-26T05:40:29.681760", "MEAN_MOTION": 13.96727195, "ECCENTRICITY": 0.00806572, "INCLINATION": 98.9548, "RA_OF_ASC_NODE": 317.4298, "ARG_OF_PERICENTER": 42.7994, "MEAN_ANOMALY": 317.9411, "EPHEMERIS_TYPE": 0, "CLASSIFICATION_TYPE": "U", "NORAD_CAT_ID": 40696, "ELEMENT_SET_NO": 999, "REV_AT_EPOCH": 55449, "BSTAR": 0.0001965233, "MEAN_MOTION_DOT": 2.38e-06, "MEAN_MOTION_DDOT": 0}, "tle": {"line1": "1 40696U 99025EXC 25330.23645465  .00000238  00000+0  19652-3 0  9996", "line2": "2 40696  98.9548 317.4298 0080657  42.7994 317.9411 13.96727195554498"}}, "geometry": {"type": "Point", "coordinates": [-28.391476909805416, -29.17232393481779]}}, {"type": "Feature", "properties": {"norad_id": 41003, "name": "FENGYUN 1C DEB", "group": "fengyun-1c-debris", "lat": 81.01238767889105, "lon": 171.4209418643475, "alt_km": 682.9612267207449, "timestamp": "2025-12-05T14:45:15.589295+00:00", "meta": {"OBJECT_NAME": "FENGYUN 1C DEB", "OBJECT_ID": "1999-025EXH", "EPOCH": "2025-12-04T00:49:42.134016", "MEAN_MOTION": 14.71928212, "ECCENTRICITY": 0.0073367, "INCLINATION": 98.9659, "RA_OF_ASC_NODE": 256.2527, "ARG_OF_PERICENTER": 319.547, "MEAN_ANOMALY": 40.0293, "EPHEMERIS_TYPE": 0, "CLASSIFICATION_TYPE": "U", "NORAD_CAT_ID": 41003, "ELEMENT_SET_NO": 999, "REV_AT_EPOCH": 52292, "BSTAR": 0.0095392716, "MEAN_MOTION_DOT": 0.00062834, "MEAN_MOTION_DDOT": 0}, "tle": {"line1": "1 41003U 99025EXH 25338.03451544  .00062834  00000+0  95393-2 0  9993", "line2": "2 41003  98.9659 256.2527 0073367 319.5470  40.0293 14.71928212522925"}}, "geometry": {"type": "Point", "coordinates": [171.4209418643475, 81.01238767889105]}}, {"type": "Feature", "properties": {"norad_id": 41006, "name": "FENGYUN 1C DEB", "group": "fengyun-1c-debris", "lat": 34.729498312836355, "lon": -160.58680243170426, "alt_km": 806.677676995786, "timestamp": "2025-12-05T14:45:15.589315+00:00", "meta": {"OBJECT_NAME": "FENGYUN 1C DEB", "OBJECT_ID": "1999-025EXL", "EPOCH": "2025-12-02T20:43:22.583712", "MEAN_MOTION": 13.85253957, "ECCENTRICITY": 0.0188796, "INCLINATION": 102.3666, "RA_OF_ASC_NODE": 204.5434, "ARG_OF_PERICENTER": 31.8016, "MEAN_ANOMALY": 329.4368, "EPHEMERIS_TYPE": 0, "CLASSIFICATION_TYPE": "U", "NORAD_CAT_ID": 41006, "ELEMENT_SET_NO": 999, "REV_AT_EPOCH": 57352, "BSTAR": 0.0034712137, "MEAN_MOTION_DOT": 4.465e-05, "MEAN_MOTION_DDOT": 0}, "tle": {"line1": "1 41006U 99025EXL 25336.86345583  .00004465  00000+0  34712-2 0  9994", "line2": "2 41006 102.3666 204.5434 0188796  31.8016 329.4368 13.85253957573522"}}, "geometry": {"type": "Point", "coordinates": [-160.58680243170426, 34.729498312836355]}}, {"type": "Feature", "properties": {"norad_id": 41011, "name": "FENGYUN 1C DEB", "group": "fengyun-1c-debris", "lat": -16.85991678849904, "lon": 26.88280096336781, "alt_km": 572.8503472183547, "timestamp": "2025-12-05T14:45:15.589327+00:00", "meta": {"OBJECT_NAME": "FENGYUN 1C DEB", "OBJECT_ID": "1999-025EXR", "EPOCH": "2025-12-04T08:52:18.345792", "MEAN_MOTION": 14.42818193, "ECCENTRICITY": 0.0310776, "INCLINATION": 99.1701, "RA_OF_ASC_NODE": 22.7359, "ARG_OF_PERICENTER": 22.8881, "MEAN_ANOMALY": 338.5819, "EPHEMERIS_TYPE": 0, "CLASSIFICATION_TYPE": "U", "NORAD_CAT_ID": 41011, "ELEMENT_SET_NO": 999, "REV_AT_EPOCH": 57036, "BSTAR": 0.0011197, "MEAN_MOTION_DOT": 6.661e-05, "MEAN_MOTION_DDOT": 0}, "tle": {"line1": "1 41011U 99025EXR 25338.36965678  .00006661  00000+0  11197-2 0  9992", "line2": "2 41011  99.1701  22.7359 0310776  22.8881 338.5819 14.42818193570366"}}, "geometry": {"type": "Point", "coordinates": [26.88280096336781, -16.85991678849904]}}]}